#aV2022  3 19  0  0  0.00000000     288 DD+AD WGS84 FIT  NGA
## 2201 518400.00000000   300.00000000 59657 0.0000000000000
+   32     1  2  3  4  5  6  7  8  9 10 11 12 13 14 15 16 17
+         18 19 20 21 22 23 24 25 26 27 28 29 30 31 32  0  0
+          0  0  0  0  0  0  0  0  0  0  0  0  0  0  0  0  0
+          0  0  0  0  0  0  0  0  0  0  0  0  0  0  0  0  0
+          0  0  0  0  0  0  0  0  0  0  0  0  0  0  0  0  0
++         2  2  2  2  2  2  2  2  2  2  2  2  2  2  2  2  2
++         2  2  2  2  2  2  2  2  2  2  2  2  2  2  2  0  0
++         0  0  0  0  0  0  0  0  0  0  0  0  0  0  0  0  0
++         0  0  0  0  0  0  0  0  0  0  0  0  0  0  0  0  0
++         0  0  0  0  0  0  0  0  0  0  0  0  0  0  0  0  0
%c cc cc ccc ccc cccc cccc cccc cccc ccccc ccccc ccccc ccccc
%c cc cc ccc ccc cccc cccc cccc cccc ccccc ccccc ccccc ccccc
%f  0.0000000  0.000000000  0.00000000000  0.000000000000000
%f  0.0000000  0.000000000  0.00000000000  0.000000000000000
%i    0    0    0    0      0      0      0      0         0
%i    0    0    0    0      0      0      0      0         0
/*      NGA, ST. LOUIS,MO.                                  
/*   EPHEMERIS COMPUTED FROM 2 DAYS OF DATA                 
/*   EPOCHA v7 SMOOTHER                                     
/*   G2139 IERS2010 SATIGS SATAPC                           
*  2022  3 19  5 20  0.00000000
P  1 -11858.611844  21281.030413 -10420.761715    405.483897                    
V  1 -10560.312274   7649.789840  28755.009994     -0.090794                    
P  2  20373.471460 -13796.804514  -9514.134525   -652.410726                    
V  2  -6538.774527  11482.591353 -28548.871005     -0.004197                    
P  3  -4396.858024  14355.310268 -22010.591305   -169.904653                    
V  3 -26718.544702  -7178.444555    767.198600     -0.166432                    
P  4  -2079.643569  24129.724702 -10798.144941   -182.606415                    
V  4  -5569.630890 -12818.026065 -27632.123843      0.027156                    
P  5  20126.969838  -6904.786322  15828.990258    -75.187586                    
V  5  19445.153623   6262.850715 -21622.213800     -0.013557                    
P  6  17041.100999   1895.397345 -20239.710286    236.253819                    
V  6 -17680.785183  18748.312491 -13010.003138      0.128748                    
P  7   3305.270137  17122.284876  20283.789365    316.722196                    
V  7 -18704.485072  16754.182195 -11804.678344      0.018613                    
P  8  -8381.771186  16947.925114  18475.217761    -60.418616                    
V  8  -8218.268391 -22229.055050  16979.646333     -0.015201                    
P  9   7039.691702  25587.175221   -565.906378   -348.968992                    
V  9  -3105.577036    238.106864 -31624.720453      0.020986                    
P 10 -22493.598535 -11804.868311   8395.430496   -351.339597                    
V 10  10535.791521    681.207323  29417.171190     -0.116300                    
P 11  22194.450527 -10662.284423  -9949.190127    -58.816883                    
V 11  -7729.418603  10289.896471 -28290.676541      0.092068                    
P 12   8834.411917 -12777.068701 -21796.617495   -187.071295                    
V 12  25431.407391   9176.690800   5115.905392     -0.057610                    
P 13  13415.988444  -8715.272998  21019.970073    279.290003                    
V 13   4279.188351  26721.885490   8449.138205      0.063634                    
P 14  21398.948816  13119.053801   8793.874337    -95.210657                    
V 14 -11478.990596   -655.468326  28815.808304     -0.035759                    
P 15   6397.385932 -18511.505322  17390.400821    -75.683083                    
V 15  11035.555842  20446.346891  17619.236728      0.029202                    
P 16 -23193.109463   1083.544929  13038.408189   -482.290226                    
V 16 -15182.524725  -7434.955546 -25398.334286     -0.043095                    
P 17  13146.523690  18197.606768 -13725.263816    589.089214                    
V 17   1803.472462  18151.217222  25063.292151      0.049458                    
P 18  -2246.195914 -17049.437952  20207.959936    216.501957                    
V 18  19155.664680 -17116.142597 -12409.247405     -0.088446                    
P 19  14900.501259  11215.801740 -19246.720178    132.914093                    
V 19   2795.250353  23628.256789  15968.759186      0.049838                    
P 20  25144.775404  -2959.911961   7608.586785    516.236940                    
V 20   9347.559604   4384.384203 -29432.689114     -0.001710                    
P 21 -17718.516575  19274.876520   1511.159086    159.555549                    
V 21  -1841.826033  -3084.266323  32098.043385      0.004361                    
P 22 -15455.015481  -7991.502536 -19715.671150    229.739630                    
V 22  -3577.118887 -25650.261417  12758.189075      0.058534                    
P 23 -13626.954066 -15238.934632  16999.502885     -8.013366                    
V 23  21341.729902   3386.043728  20036.626374     -0.031702                    
P 24  13296.652489 -22096.605996  -5660.867037    266.659260                    
V 24   7398.420041  -2806.941917  30306.853373     -0.036985                    
P 25  -6136.249244 -16390.556278 -20342.977611    300.275124                    
V 25  24555.746107   5422.790217 -11669.894793      0.051576                    
P 26 -26321.415465  -4408.017119   1435.240533    191.932638                    
V 26  -1205.749293  -3590.877416 -30967.816842      0.029891                    
P 27 -14028.006140   4931.410406  21791.245523    158.623456                    
V 27  -7658.152900 -27078.452468   1573.769248      0.121247                    
P 28  24521.457594   9850.804465   1143.250468    377.310908                    
V 28  -1737.151090   2297.709184  32038.884760     -0.084284                    
P 29  -3585.276875 -26203.921681  -2127.377687   -493.043411                    
V 29   2646.840723   2179.860192 -32100.453323     -0.044250                    
P 30  11004.644450  11305.861529  21439.275737   -519.462459                    
V 30 -19562.605374  18824.083071   -132.036237     -0.019935                    
P 31 -19138.847659     12.055741 -18733.063127   -169.572073                    
V 31  16006.271271 -17085.350117 -16014.558877     -0.017237                    
P 32 -15598.967489 -14525.913994 -15826.075194    -87.625367                    
V 32  -3618.303175 -20046.088798  21590.414599     -0.074726                    
EOF
